[{"OBJECT_NAME":"YAOGAN-28","OBJECT_ID":"2015-064A","EPOCH":"2026-03-09T23:07:10.370208","MEAN_MOTION":15.26008,"ECCENTRICITY":0.00111911,"INCLINATION":97.2901,"RA_OF_ASC_NODE":209.4389,"ARG_OF_PERICENTER":175.4532,"MEAN_ANOMALY":184.6811,"EPHEMERIS_TYPE":0,"CLASSIFICATION_TYPE":"U","NORAD_CAT_ID":41026,"ELEMENT_SET_NO":999,"REV_AT_EPOCH":57554,"BSTAR":0.00039691695,"MEAN_MOTION_DOT":0.00010159,"MEAN_MOTION_DDOT":0},{"OBJECT_NAME":"STARLINK-35719","OBJECT_ID":"2025-303W","EPOCH":"2026-03-09T09:32:44.047392","MEAN_MOTION":15.27598093,"ECCENTRICITY":0.00016361,"INCLINATION":43.0006,"RA_OF_ASC_NODE":312.0919,"ARG_OF_PERICENTER":257.2789,"MEAN_ANOMALY":102.788,"EPHEMERIS_TYPE":0,"CLASSIFICATION_TYPE":"U","NORAD_CAT_ID":67183,"ELEMENT_SET_NO":999,"REV_AT_EPOCH":1269,"BSTAR":0.00093998371,"MEAN_MOTION_DOT":0.00025709,"MEAN_MOTION_DDOT":0}]
